{"type": "FeatureCollection", "features": [ {"type": "Feature", "properties": {"norad_id": 31226, "name": "FENGYUN 1C DEB", "group": "fengyun-1c-debris", "lat": 80.02196510664041, "lon": -144.75924372825259, "alt_km": 846.8369095360822, "timestamp": "2025-12-04T10:51:50.386564+00:00", "meta": {"OBJECT_NAME": "FENGYUN 1C DEB", "OBJECT_ID": "1999-025BLG", "EPOCH": "2025-12-03T17:34:33.337056", "MEAN_MOTION": 14.26664209, "ECCENTRICITY": 0.01263169, "INCLINATION": 98.3498, "RA_OF_ASC_NODE": 337.9593, "ARG_OF_PERICENTER": 222.6449, "MEAN_ANOMALY": 136.4874, "EPHEMERIS_TYPE": 0, "CLASSIFICATION_TYPE": "U", "NORAD_CAT_ID": 31226, "ELEMENT_SET_NO": 999, "REV_AT_EPOCH": 61925, "BSTAR": 0.00052832093, "MEAN_MOTION_DOT": 1.347e-05, "MEAN_MOTION_DDOT": 0}, "tle": {"line1": "1 31226U 99025BLG 25337.73233029  .00001347  00000+0  52832-3 0  9995", "line2": "2 31226  98.3498 337.9593 0126316 222.6449 136.4874 14.26664209619250"}}, "geometry": {"type": "Point", "coordinates": [-144.75924372825259, 80.02196510664041]}}, {"type": "Feature", "properties": {"norad_id": 31228, "name": "FENGYUN 1C DEB", "group": "fengyun-1c-debris", "lat": 34.68082855010065, "lon": 76.22114225734867, "alt_km": 719.9114786757136, "timestamp": "2025-12-04T10:51:50.386574+00:00", "meta": {"OBJECT_NAME": "FENGYUN 1C DEB", "OBJECT_ID": "1999-025BLJ", "EPOCH": "2025-12-03T08:00:44.303904", "MEAN_MOTION": 14.36872993, "ECCENTRICITY": 0.0079014, "INCLINATION": 98.8686, "RA_OF_ASC_NODE": 248.8667, "ARG_OF_PERICENTER": 113.3829, "MEAN_ANOMALY": 6.7685, "EPHEMERIS_TYPE": 0, "CLASSIFICATION_TYPE": "U", "NORAD_CAT_ID": 31228, "ELEMENT_SET_NO": 999, "REV_AT_EPOCH": 97434, "BSTAR": 0.00068914, "MEAN_MOTION_DOT": 2.065e-05, "MEAN_MOTION_DDOT": 0}, "tle": {"line1": "1 31228U 99025BLJ 25337.33384611  .00002065  00000+0  68914-3 0  9993", "line2": "2 31228  98.8686 248.8667 0079014 113.3829   6.7685 14.36872993974343"}}, "geometry": {"type": "Point", "coordinates": [76.22114225734867, 34.68082855010065]}}, {"type": "Feature", "properties": {"norad_id": 31229, "name": "FENGYUN 1C DEB", "group": "fengyun-1c-debris", "lat": 31.356291991278297, "lon": 48.26142493970635, "alt_km": 804.967849759616, "timestamp": "2025-12-04T10:51:50.386584+00:00", "meta": {"OBJECT_NAME": "FENGYUN 1C DEB", "OBJECT_ID": "1999-025BLK", "EPOCH": "2025-12-02T21:33:26.156160", "MEAN_MOTION": 14.21721225, "ECCENTRICITY": 0.00524397, "INCLINATION": 98.8685, "RA_OF_ASC_NODE": 52.159, "ARG_OF_PERICENTER": 325.7559, "MEAN_ANOMALY": 34.024, "EPHEMERIS_TYPE": 0, "CLASSIFICATION_TYPE": "U", "NORAD_CAT_ID": 31229, "ELEMENT_SET_NO": 999, "REV_AT_EPOCH": 95944, "BSTAR": 0.0016946422, "MEAN_MOTION_DOT": 3.733e-05, "MEAN_MOTION_DDOT": 0}, "tle": {"line1": "1 31229U 99025BLK 25336.89821940  .00003733  00000+0  16946-2 0  9995", "line2": "2 31229  98.8685  52.1590 0052439 325.7559  34.0240 14.21721225959445"}}, "geometry": {"type": "Point", "coordinates": [48.26142493970635, 31.356291991278297]}}, {"type": "Feature", "properties": {"norad_id": 31231, "name": "FENGYUN 1C DEB", "group": "fengyun-1c-debris", "lat": -71.12146290748514, "lon": -70.33548771162776, "alt_km": 704.6506257809833, "timestamp": "2025-12-04T10:51:50.386595+00:00", "meta": {"OBJECT_NAME": "FENGYUN 1C DEB", "OBJECT_ID": "1999-025BLM", "EPOCH": "2025-12-03T04:25:17.802048", "MEAN_MOTION": 14.74747924, "ECCENTRICITY": 0.0148073, "INCLINATION": 98.8603, "RA_OF_ASC_NODE": 135.4173, "ARG_OF_PERICENTER": 136.6139, "MEAN_ANOMALY": 224.6836, "EPHEMERIS_TYPE": 0, "CLASSIFICATION_TYPE": "U", "NORAD_CAT_ID": 31231, "ELEMENT_SET_NO": 999, "REV_AT_EPOCH": 62880, "BSTAR": 0.0045464, "MEAN_MOTION_DOT": 0.00036415, "MEAN_MOTION_DDOT": 0}, "tle": {"line1": "1 31231U 99025BLM 25337.18423382  .00036415  00000+0  45464-2 0  9999", "line2": "2 31231  98.8603 135.4173 0148073 136.6139 224.6836 14.74747924628806"}}, "geometry": {"type": "Point", "coordinates": [-70.33548771162776, -71.12146290748514]}}, {"type": "Feature", "properties": {"norad_id": 31234, "name": "FENGYUN 1C DEB", "group": "fengyun-1c-debris", "lat": 46.51996096368075, "lon": -36.704451615349605, "alt_km": 910.5885593825342, "timestamp": "2025-12-04T10:51:50.386605+00:00", "meta": {"OBJECT_NAME": "FENGYUN 1C DEB", "OBJECT_ID": "1999-025BLQ", "EPOCH": "2025-12-03T05:38:41.279136", "MEAN_MOTION": 14.08001275, "ECCENTRICITY": 0.0072936, "INCLINATION": 98.7845, "RA_OF_ASC_NODE": 331.4953, "ARG_OF_PERICENTER": 253.9693, "MEAN_ANOMALY": 105.3435, "EPHEMERIS_TYPE": 0, "CLASSIFICATION_TYPE": "U", "NORAD_CAT_ID": 31234, "ELEMENT_SET_NO": 999, "REV_AT_EPOCH": 72586, "BSTAR": 0.0003221, "MEAN_MOTION_DOT": 5.18e-06, "MEAN_MOTION_DDOT": 0}, "tle": {"line1": "1 31234U 99025BLQ 25337.23519999  .00000518  00000+0  32210-3 0  9999", "line2": "2 31234  98.7845 331.4953 0072936 253.9693 105.3435 14.08001275725865"}}, "geometry": {"type": "Point", "coordinates": [-36.704451615349605, 46.51996096368075]}}, {"type": "Feature", "properties": {"norad_id": 31235, "name": "FENGYUN 1C DEB", "group": "fengyun-1c-debris", "lat": 75.64446557862361, "lon": 91.47199038965894, "alt_km": 712.5600348500748, "timestamp": "2025-12-04T10:51:50.386615+00:00", "meta": {"OBJECT_NAME": "FENGYUN 1C DEB", "OBJECT_ID": "1999-025BLR", "EPOCH": "2025-12-02T16:11:02.663232", "MEAN_MOTION": 14.18412346, "ECCENTRICITY": 0.01800212, "INCLINATION": 98.4719, "RA_OF_ASC_NODE": 125.3899, "ARG_OF_PERICENTER": 51.7016, "MEAN_ANOMALY": 310.0196, "EPHEMERIS_TYPE": 0, "CLASSIFICATION_TYPE": "U", "NORAD_CAT_ID": 31235, "ELEMENT_SET_NO": 999, "REV_AT_EPOCH": 63024, "BSTAR": 0.0030847823, "MEAN_MOTION_DOT": 7.441e-05, "MEAN_MOTION_DDOT": 0}, "tle": {"line1": "1 31235U 99025BLR 25336.67433638  .00007441  00000+0  30848-2 0  9998", "line2": "2 31235  98.4719 125.3899 0180021  51.7016 310.0196 14.18412346630242"}}, "geometry": {"type": "Point", "coordinates": [91.47199038965894, 75.64446557862361]}}, {"type": "Feature", "properties": {"norad_id": 31236, "name": "FENGYUN 1C DEB", "group": "fengyun-1c-debris", "lat": -28.785079906576577, "lon": 109.65078747639438, "alt_km": 1122.3193614510037, "timestamp": "2025-12-04T10:51:50.386626+00:00", "meta": {"OBJECT_NAME": "FENGYUN 1C DEB", "OBJECT_ID": "1999-025BLS", "EPOCH": "2025-12-03T07:53:25.598400", "MEAN_MOTION": 13.85599249, "ECCENTRICITY": 0.0314237, "INCLINATION": 98.5451, "RA_OF_ASC_NODE": 293.3621, "ARG_OF_PERICENTER": 72.3659, "MEAN_ANOMALY": 291.1553, "EPHEMERIS_TYPE": 0, "CLASSIFICATION_TYPE": "U", "NORAD_CAT_ID": 31236, "ELEMENT_SET_NO": 999, "REV_AT_EPOCH": 60894, "BSTAR": 0.0055596, "MEAN_MOTION_DOT": 9.321e-05, "MEAN_MOTION_DDOT": 0}, "tle": {"line1": "1 31236U 99025BLS 25337.32876850  .00009321  00000+0  55596-2 0  9995", "line2": "2 31236  98.5451 293.3621 0314237  72.3659 291.1553 13.85599249608945"}}, "geometry": {"type": "Point", "coordinates": [109.65078747639438, -28.785079906576577]}}, {"type": "Feature", "properties": {"norad_id": 31237, "name": "FENGYUN 1C DEB", "group": "fengyun-1c-debris", "lat": -34.895749910605794, "lon": 151.58186258572584, "alt_km": 852.9726831541302, "timestamp": "2025-12-04T10:51:50.386636+00:00", "meta": {"OBJECT_NAME": "FENGYUN 1C DEB", "OBJECT_ID": "1999-025BLT", "EPOCH": "2025-12-03T20:26:21.312384", "MEAN_MOTION": 14.31340441, "ECCENTRICITY": 0.00895567, "INCLINATION": 98.4534, "RA_OF_ASC_NODE": 336.9508, "ARG_OF_PERICENTER": 15.2128, "MEAN_ANOMALY": 345.1717, "EPHEMERIS_TYPE": 0, "CLASSIFICATION_TYPE": "U", "NORAD_CAT_ID": 31237, "ELEMENT_SET_NO": 999, "REV_AT_EPOCH": 97139, "BSTAR": 0.00083536501, "MEAN_MOTION_DOT": 2.27e-05, "MEAN_MOTION_DDOT": 0}, "tle": {"line1": "1 31237U 99025BLT 25337.85163556  .00002270  00000+0  83537-3 0  9999", "line2": "2 31237  98.4534 336.9508 0089556  15.2128 345.1717 14.31340441971399"}}, "geometry": {"type": "Point", "coordinates": [151.58186258572584, -34.895749910605794]}}, {"type": "Feature", "properties": {"norad_id": 31239, "name": "FENGYUN 1C DEB", "group": "fengyun-1c-debris", "lat": -29.457883446000324, "lon": -21.38882553162551, "alt_km": 876.8291274541607, "timestamp": "2025-12-04T10:51:50.386647+00:00", "meta": {"OBJECT_NAME": "FENGYUN 1C DEB", "OBJECT_ID": "1999-025BLV", "EPOCH": "2025-12-03T11:56:24.515808", "MEAN_MOTION": 14.098421, "ECCENTRICITY": 0.00489966, "INCLINATION": 98.7579, "RA_OF_ASC_NODE": 332.6869, "ARG_OF_PERICENTER": 224.5, "MEAN_ANOMALY": 300.0796, "EPHEMERIS_TYPE": 0, "CLASSIFICATION_TYPE": "U", "NORAD_CAT_ID": 31239, "ELEMENT_SET_NO": 999, "REV_AT_EPOCH": 95881, "BSTAR": 0.00049007385, "MEAN_MOTION_DOT": 8.28e-06, "MEAN_MOTION_DDOT": 0}, "tle": {"line1": "1 31239U 99025BLV 25337.49750597  .00000828  00000+0  49007-3 0  9999", "line2": "2 31239  98.7579 332.6869 0048996 224.5000 300.0796 14.09842100958816"}}, "geometry": {"type": "Point", "coordinates": [-21.38882553162551, -29.457883446000324]}}, {"type": "Feature", "properties": {"norad_id": 31241, "name": "FENGYUN 1C DEB", "group": "fengyun-1c-debris", "lat": -23.3238151860739, "lon": -59.376603243397724, "alt_km": 720.8340312448709, "timestamp": "2025-12-04T10:51:50.386658+00:00", "meta": {"OBJECT_NAME": "FENGYUN 1C DEB", "OBJECT_ID": "1999-025BLX", "EPOCH": "2025-12-03T08:52:52.186944", "MEAN_MOTION": 14.3862949, "ECCENTRICITY": 0.0066637, "INCLINATION": 99.2337, "RA_OF_ASC_NODE": 123.4815, "ARG_OF_PERICENTER": 208.29, "MEAN_ANOMALY": 151.466, "EPHEMERIS_TYPE": 0, "CLASSIFICATION_TYPE": "U", "NORAD_CAT_ID": 31241, "ELEMENT_SET_NO": 999, "REV_AT_EPOCH": 97556, "BSTAR": 0.0010627, "MEAN_MOTION_DOT": 3.291e-05, "MEAN_MOTION_DDOT": 0}, "tle": {"line1": "1 31241U 99025BLX 25337.37004846  .00003291  00000+0  10627-2 0  9990", "line2": "2 31241  99.2337 123.4815 0066637 208.2900 151.4660 14.38629490975560"}}, "geometry": {"type": "Point", "coordinates": [-59.376603243397724, -23.3238151860739]}}]}